[{"OBJECT_NAME":"STARLINK-3765","OBJECT_ID":"2022-041AL","EPOCH":"2026-03-09T08:37:46.460064","MEAN_MOTION":15.08840231,"ECCENTRICITY":0.00013767,"INCLINATION":53.2164,"RA_OF_ASC_NODE":100.6021,"ARG_OF_PERICENTER":93.7919,"MEAN_ANOMALY":266.323,"EPHEMERIS_TYPE":0,"CLASSIFICATION_TYPE":"U","NORAD_CAT_ID":52295,"ELEMENT_SET_NO":999,"REV_AT_EPOCH":21445,"BSTAR":-3.473312e-5,"MEAN_MOTION_DOT":-8.41e-6,"MEAN_MOTION_DDOT":0},{"OBJECT_NAME":"YUNYAO-1 45","OBJECT_ID":"2025-059C","EPOCH":"2026-03-09T23:25:14.115648","MEAN_MOTION":15.10348188,"ECCENTRICITY":0.00171316,"INCLINATION":97.6099,"RA_OF_ASC_NODE":251.0366,"ARG_OF_PERICENTER":134.7318,"MEAN_ANOMALY":225.5309,"EPHEMERIS_TYPE":0,"CLASSIFICATION_TYPE":"U","NORAD_CAT_ID":63346,"ELEMENT_SET_NO":999,"REV_AT_EPOCH":5332,"BSTAR":0.00033512738,"MEAN_MOTION_DOT":5.451e-5,"MEAN_MOTION_DDOT":0}]
